{
  "norad_id": 59348,
  "name": "STARLINK-31605",
  "history": [
    {
      "epoch": "2026-04-15T21:04:52.667904Z",
      "apogee_km": 483.87706745305604,
      "perigee_km": 482.2838927541761,
      "latitude_deg": 2.585048866891295e-05,
      "longitude_deg": -121.0831554928561,
      "height_km": 482.85159826654956,
      "semi_major_axis_km": 6861.217480103615,
      "eccentricity": 0.0001161,
      "inclination_deg": 43.0044,
      "raan_deg": 39.1704,
      "arg_perigee_deg": 270.4223,
      "mean_anomaly_deg": 89.6496,
      "mean_motion_rev_day": 15.27569519
    },
    {
      "epoch": "2026-04-16T19:03:04.112640Z",
      "apogee_km": 483.79402965875215,
      "perigee_km": 482.25301300566025,
      "latitude_deg": -2.2453979479113878e-05,
      "longitude_deg": -96.70226115739598,
      "height_km": 483.0188243943894,
      "semi_major_axis_km": 6861.1605213322055,
      "eccentricity": 0.0001123,
      "inclination_deg": 43.0066,
      "raan_deg": 34.0013,
      "arg_perigee_deg": 253.5517,
      "mean_anomaly_deg": 106.5211,
      "mean_motion_rev_day": 15.27588541
    },
    {
      "epoch": "2026-04-17T12:18:45.834336Z",
      "apogee_km": 484.0066810275857,
      "perigee_km": 481.9882724872132,
      "latitude_deg": 5.581764909931824e-05,
      "longitude_deg": -0.3971254037873515,
      "height_km": 482.7495253058647,
      "semi_major_axis_km": 6861.134476757399,
      "eccentricity": 0.00014709,
      "inclination_deg": 43.0056,
      "raan_deg": 29.9391,
      "arg_perigee_deg": 271.4383,
      "mean_anomaly_deg": 88.6301,
      "mean_motion_rev_day": 15.27597239
    },
    {
      "epoch": "2026-04-18T11:51:07.678368Z",
      "apogee_km": 483.9263799482005,
      "perigee_km": 482.1906347087561,
      "latitude_deg": 2.0062067823166207e-05,
      "longitude_deg": 0.005391377621500481,
      "height_km": 482.9763859163507,
      "semi_major_axis_km": 6861.195507328478,
      "eccentricity": 0.00012649,
      "inclination_deg": 43.0076,
      "raan_deg": 24.3994,
      "arg_perigee_deg": 260.6848,
      "mean_anomaly_deg": 99.3861,
      "mean_motion_rev_day": 15.27576857
    },
    {
      "epoch": "2026-04-19T11:23:27.699360Z",
      "apogee_km": 484.14093276941276,
      "perigee_km": 481.81748437654187,
      "latitude_deg": 1.0998258005513032e-05,
      "longitude_deg": 0.4136522570790063,
      "height_km": 482.9273194536147,
      "semi_major_axis_km": 6861.1162085729775,
      "eccentricity": 0.00016932,
      "inclination_deg": 43.0084,
      "raan_deg": 18.8578,
      "arg_perigee_deg": 261.5716,
      "mean_anomaly_deg": 98.4944,
      "mean_motion_rev_day": 15.2760334
    },
    {
      "epoch": "2026-04-20T10:55:49.107936Z",
      "apogee_km": 484.27031773725594,
      "perigee_km": 481.719623315892,
      "latitude_deg": 2.0556183451677532e-05,
      "longitude_deg": 0.8189344937879166,
      "height_km": 483.0711310207628,
      "semi_major_axis_km": 6861.131970526573,
      "eccentricity": 0.00018588,
      "inclination_deg": 43.0088,
      "raan_deg": 13.319,
      "arg_perigee_deg": 256.4781,
      "mean_anomaly_deg": 103.5864,
      "mean_motion_rev_day": 15.27598076
    },
    {
      "epoch": "2026-04-21T10:28:08.982048Z",
      "apogee_km": 484.0916811925663,
      "perigee_km": 481.87403003283544,
      "latitude_deg": 1.0614768226480621e-05,
      "longitude_deg": 1.2326063689976228,
      "height_km": 482.82332708264585,
      "semi_major_axis_km": 6861.119855612701,
      "eccentricity": 0.00016161,
      "inclination_deg": 43.0078,
      "raan_deg": 7.7822,
      "arg_perigee_deg": 266.7564,
      "mean_anomaly_deg": 93.3103,
      "mean_motion_rev_day": 15.27602122
    },
    {
      "epoch": "2026-04-22T02:09:42.901632Z",
      "apogee_km": 484.34546138541737,
      "perigee_km": 481.8470119146232,
      "latitude_deg": 2.384528596852493e-06,
      "longitude_deg": 121.5010857336497,
      "height_km": 483.1118372937588,
      "semi_major_axis_km": 6861.23323665002,
      "eccentricity": 0.00018207,
      "inclination_deg": 43.0102,
      "raan_deg": 4.0865,
      "arg_perigee_deg": 259.0411,
      "mean_anomaly_deg": 101.0236,
      "mean_motion_rev_day": 15.27564257
    },
    {
      "epoch": "2026-04-24T09:05:12.266880Z",
      "apogee_km": 483.76129854849205,
      "perigee_km": 482.4000329636074,
      "latitude_deg": -2.738565678418091e-06,
      "longitude_deg": 2.451238386402774,
      "height_km": 482.8465420843659,
      "semi_major_axis_km": 6861.217665756049,
      "eccentricity": 9.92e-05,
      "inclination_deg": 43.0069,
      "raan_deg": 351.1647,
      "arg_perigee_deg": 270.9469,
      "mean_anomaly_deg": 89.1269,
      "mean_motion_rev_day": 15.27569457
    },
    {
      "epoch": "2026-04-25T08:37:32.691360Z",
      "apogee_km": 483.8285047473837,
      "perigee_km": 482.4233181031241,
      "latitude_deg": -3.0443494531458762e-05,
      "longitude_deg": 2.8596936079677167,
      "height_km": 482.92968445745936,
      "semi_major_axis_km": 6861.262911425253,
      "eccentricity": 0.0001024,
      "inclination_deg": 43.0069,
      "raan_deg": 345.625,
      "arg_perigee_deg": 267.8285,
      "mean_anomaly_deg": 92.2449,
      "mean_motion_rev_day": 15.27554347
    },
    {
      "epoch": "2026-04-26T16:00:41.662368Z",
      "apogee_km": 483.51203703131705,
      "perigee_km": 482.6370953323976,
      "latitude_deg": -4.195921526869081e-05,
      "longitude_deg": -116.60066758218134,
      "height_km": 482.8455689059791,
      "semi_major_axis_km": 6861.211566181857,
      "eccentricity": 6.376e-05,
      "inclination_deg": 43.0049,
      "raan_deg": 338.241,
      "arg_perigee_deg": 270.7309,
      "mean_anomaly_deg": 89.3469,
      "mean_motion_rev_day": 15.27571494
    },
    {
      "epoch": "2026-04-27T07:42:15.372000Z",
      "apogee_km": 483.3533792682201,
      "perigee_km": 482.76606082898434,
      "latitude_deg": 2.666518140396918e-05,
      "longitude_deg": 3.672073068990561,
      "height_km": 482.8947265861338,
      "semi_major_axis_km": 6861.196720048602,
      "eccentricity": 4.28e-05,
      "inclination_deg": 43.0036,
      "raan_deg": 334.5486,
      "arg_perigee_deg": 258.4509,
      "mean_anomaly_deg": 101.6295,
      "mean_motion_rev_day": 15.27576452
    },
    {
      "epoch": "2026-04-28T07:14:35.790432Z",
      "apogee_km": 483.17827156890417,
      "perigee_km": 482.90108003120076,
      "latitude_deg": -3.586998881758113e-05,
      "longitude_deg": 4.0813177689235385,
      "height_km": 482.8562108627948,
      "semi_major_axis_km": 6861.176675800052,
      "eccentricity": 2.02e-05,
      "inclination_deg": 43.0032,
      "raan_deg": 329.0097,
      "arg_perigee_deg": 252.9758,
      "mean_anomaly_deg": 107.1071,
      "mean_motion_rev_day": 15.27583146
    },
    {
      "epoch": "2026-04-29T14:37:45.628032Z",
      "apogee_km": 483.63847910788627,
      "perigee_km": 482.548915673141,
      "latitude_deg": 1.5785749897671424e-05,
      "longitude_deg": -115.38219642901453,
      "height_km": 482.84629703521193,
      "semi_major_axis_km": 6861.230697390513,
      "eccentricity": 7.94e-05,
      "inclination_deg": 43.0051,
      "raan_deg": 321.6261,
      "arg_perigee_deg": 272.5403,
      "mean_anomaly_deg": 87.5358,
      "mean_motion_rev_day": 15.27565105
    },
    {
      "epoch": "2026-04-30T14:10:04.570752Z",
      "apogee_km": 484.31957562329717,
      "perigee_km": 481.8118060397983,
      "latitude_deg": -1.67492251616319e-05,
      "longitude_deg": -114.96715505189393,
      "height_km": 482.8370468424382,
      "semi_major_axis_km": 6861.202690831547,
      "eccentricity": 0.00018275,
      "inclination_deg": 43.0041,
      "raan_deg": 316.0868,
      "arg_perigee_deg": 270.2809,
      "mean_anomaly_deg": 89.7833,
      "mean_motion_rev_day": 15.27574458
    },
    {
      "epoch": "2026-05-02T05:23:58.651296Z",
      "apogee_km": 483.48959940172153,
      "perigee_km": 482.5070848207306,
      "latitude_deg": -4.051261405794837e-05,
      "longitude_deg": 5.713493751101216,
      "height_km": 482.7673384044426,
      "semi_major_axis_km": 6861.135342111225,
      "eccentricity": 7.16e-05,
      "inclination_deg": 43.0018,
      "raan_deg": 306.854,
      "arg_perigee_deg": 270.8528,
      "mean_anomaly_deg": 89.2241,
      "mean_motion_rev_day": 15.2759695
    },
    {
      "epoch": "2026-05-03T20:37:53.255424Z",
      "apogee_km": 483.55005620958946,
      "perigee_km": 482.511275424984,
      "latitude_deg": -2.6070181525108685e-05,
      "longitude_deg": 126.39369344896261,
      "height_km": 483.2067568091044,
      "semi_major_axis_km": 6861.167665817286,
      "eccentricity": 7.57e-05,
      "inclination_deg": 43.0029,
      "raan_deg": 297.6229,
      "arg_perigee_deg": 219.645,
      "mean_anomaly_deg": 140.4346,
      "mean_motion_rev_day": 15.27586155
    },
    {
      "epoch": "2026-05-04T12:19:28.313760Z",
      "apogee_km": 483.6627534406234,
      "perigee_km": 482.54972256255496,
      "latitude_deg": 1.1234790884269802e-05,
      "longitude_deg": -113.34043698444937,
      "height_km": 482.8485092848239,
      "semi_major_axis_km": 6861.243238001589,
      "eccentricity": 8.111e-05,
      "inclination_deg": 43.0016,
      "raan_deg": 293.9293,
      "arg_perigee_deg": 273.5131,
      "mean_anomaly_deg": 86.5628,
      "mean_motion_rev_day": 15.27560917
    },
    {
      "epoch": "2026-05-05T11:51:48.394368Z",
      "apogee_km": 483.52658277364026,
      "perigee_km": 482.552295719267,
      "latitude_deg": 9.500650569162727e-06,
      "longitude_deg": -112.93022041366895,
      "height_km": 482.7545020502945,
      "semi_major_axis_km": 6861.176439246454,
      "eccentricity": 7.1e-05,
      "inclination_deg": 42.9998,
      "raan_deg": 288.3899,
      "arg_perigee_deg": 277.1952,
      "mean_anomaly_deg": 82.8819,
      "mean_motion_rev_day": 15.27583225
    }
  ]
}